1 41550U 16030B   17144.99243647 -.00000045  00000-0  00000-0 0  9996
2 41550  57.1708 312.5021 0001355 206.2460 153.7233  1.70474692  6227
1 41550U 16030B   17148.51194672 -.00000055  00000-0  00000-0 0  9992
2 41550  57.1683 312.4068 0001449 206.0702 153.8932  1.70474711  6285
1 41550U 16030B   17149.68512294 -.00000056  00000-0  00000-0 0  9996
2 41550  57.1675 312.3749 0001488 205.8796 154.0865  1.70474766  6316
1 41550U 16030B   17150.27171168 -.00000057  00000-0  00000-0 0  9995
2 41550  57.1671 312.3590 0001509 205.8243 154.1434  1.70474790  6328
1 41550U 16030B   17151.44489118 -.00000059  00000-0  00000-0 0  9994
2 41550  57.1663 312.3272 0001550 205.5809 154.3895  1.70474768  6336
1 41550U 16030B   17154.37782044 -.00000068  00000-0  00000-0 0  9993
2 41550  57.1641 312.2479 0001648 205.7636 154.2068  1.70474929  6383
1 41550U 16030B   17157.31073729 -.00000072  00000-0  00000-0 0  9998
2 41550  57.1621 312.1686 0001748 206.5666 153.3961  1.70475049  6435
1 41550U 16030B   17157.31073972 -.00000072  00000-0  00000-0 0  9998
2 41550  57.1621 312.1687 0001756 206.6302 153.3324  1.70475000  6444
1 41550U 16030B   17158.48390723 -.00000070  00000-0  00000-0 0  9991
2 41550  57.1612 312.1370 0001774 206.8203 153.1400  1.70475034  6467
1 41550U 16030B   17164.34978453 -.00000046  00000-0  00000-0 0  9998
2 41550  57.1570 311.9786 0001989 208.0143 151.9577  1.70475038  6558
1 41550U 16030B   17165.52296389 -.00000042  00000-0  00000-0 0  9996
2 41550  57.1563 311.9470 0002030 208.8724 151.1040  1.70475019  6580
1 41550U 16030B   17165.52298839  .00000000  00000-0  10000-3 0  9995
2 41550  57.1487 311.9518 0001546 194.4361 165.5528  1.70474069  6579
1 41550U 16030B   17167.28272866 -.00000039  00000-0  00000-0 0  9991
2 41550  57.1550 311.8995 0002090 209.1201 150.8606  1.70474966  6604
1 41550U 16030B   17171.38881485 -.00000054  00000-0  00000-0 0  9997
2 41550  57.1517 311.7882 0002243 209.5592 150.4114  1.70474843  6679
1 41550U 16030B   17171.38881485 -.00000054  00000-0  00000-0 0  9997
2 41550  57.1517 311.7882 0002243 209.5592 150.4114  1.70474843  6680
1 41550U 16030B   17174.32173054 -.00000065  00000-0  00000-0 0  9992
2 41550  57.1492 311.7088 0002385 210.4541 149.5086  1.70474856  6739
1 41550U 16030B   17180.18761600 -.00000074  00000-0  00000-0 0  9993
2 41550  57.1444 311.5499 0002538 211.5581 148.4208  1.70474976  6823
1 41550U 16030B   17184.29370675 -.00000082  00000-0  00000-0 0  9996
2 41550  57.1409 311.4387 0002683 212.7764 147.1985  1.70475147  6892
1 41550U 16030B   17184.29370887 -.00000082  00000-0  00000-0 0  9991
2 41550  57.1408 311.4387 0002696 212.8073 147.1675  1.70475089  6902
1 41550U 16030B   17185.46687540 -.00000080  00000-0  00000-0 0  9996
2 41550  57.1404 311.4070 0002715 213.0747 146.8989  1.70475173  6920
1 41550U 16030B   17190.74616394 -.00000055  00000-0  00000-0 0  9994
2 41550  57.1370 311.2643 0002925 214.6871 145.2999  1.70475207  7006
1 41550U 16030B   17191.91934645 -.00000050  00000-0  00000-0 0  9991
2 41550  57.1361 311.2325 0002968 215.1249 144.8682  1.70475126  7032
1 41550U 16030B   17194.26570334 -.00000043  00000-0  00000-0 0  9995
2 41550  57.1343 311.1690 0003035 215.5816 144.4211  1.70475084  7066
1 41550U 16030B   17194.85229041 -.00000042  00000-0  00000-0 0  9995
2 41550  57.1339 311.1531 0003066 215.7804 144.2234  1.70475051  7087
1 41550U 16030B   17196.61204578 -.00000045  00000-0  00000-0 0  9992
2 41550  57.1322 311.1055 0003125 216.2375 143.7656  1.70474996  7118
1 41550U 16030B   17196.61204701 -.00000045  00000-0  00000-0 0  9990
2 41550  57.1322 311.1055 0003111 216.1411 143.8621  1.70474982  7100
1 41550U 16030B   17198.37179419 -.00000052  00000-0  00000-0 0  9990
2 41550  57.1308 311.0577 0003171 216.5087 143.4892  1.70474967  7144
1 41550U 16030B   17200.13154127 -.00000060  00000-0  00000-0 0  9996
2 41550  57.1295 311.0100 0003240 216.9990 142.9935  1.70474951  7162
1 41550U 16030B   17203.65106138 -.00000064  00000-0  00000-0 0  9999
2 41550  57.1268 310.9145 0003343 218.0061 141.9908  1.70474968  7229
1 41550U 16030B   17205.41082913 -.00000064  00000-0  00000-0 0  9999
2 41550  57.1254 310.8667 0003404 218.6051 141.3992  1.70475025  7261
1 41550U 16030B   17205.99742110 -.00000065  00000-0  00000-0 0  9995
2 41550  57.1250 310.8508 0003405 218.6957 141.3110  1.70474965  7261
1 41550U 16030B   17206.58400742 -.00000067  00000-0  00000-0 0  9995
2 41550  57.1245 310.8349 0003439 219.0512 140.9571  1.70475046  7286
1 41550U 16030B   17212.44985613 -.00000074  00000-0  00000-0 0  9990
2 41550  57.1199 310.6758 0003623 221.3780 138.6279  1.70475210  7387
1 41550U 16030B   17218.31573576 -.00000044  00000-0  00000-0 0  9990
2 41550  57.1155 310.5167 0003831 223.6629 136.3582  1.70475130  7473
1 41550U 16030B   17218.31573576 -.00000044  00000-0  00000-0 0  9990
2 41550  57.1155 310.5167 0003831 223.6629 136.3582  1.70475130  7484
1 41550U 16030B   17219.48891512 -.00000038  00000-0  00000-0 0  9995
2 41550  57.1139 310.4849 0003830 223.7273 136.3002  1.70475160  7500
1 41550U 16030B   17224.18161169 -.00000032  00000-0  00000+0 0  9999
2 41550  57.1111 310.3575 0003964 225.0322 135.0024  1.70474956  7572
1 41550U 16030B   17225.35477268 -.00000036  00000-0  00000-0 0  9994
2 41550  57.1103 310.3255 0003979 225.1852 134.8458  1.70475041  7601
1 41550U 16030B   17227.11452362 -.00000043  00000-0  00000+0 0  9995
2 41550  57.1090 310.2775 0004037 225.6126 134.4119  1.70474870  7628
1 41550U 16030B   17228.87427952 -.00000046  00000-0  00000-0 0  9990
2 41550  57.1076 310.2293 0004098 226.1329 133.8890  1.70474743  7667
1 41550U 16030B   17230.04745098 -.00000047  00000-0  00000+0 0  9996
2 41550  57.1068 310.1976 0004110 226.3456 133.6781  1.70474845  7674
1 41550U 16030B   17231.80721567 -.00000046  00000-0  00000-0 0  9996
2 41550  57.1055 310.1499 0004159 227.0499 132.9794  1.70474915  7717
1 41550U 16030B   17234.15356956 -.00000050  00000-0  00000+0 0  9997
2 41550  57.1038 310.0862 0004217 227.8149 132.2212  1.70474958  7744
1 41550U 16030B   17237.08649668 -.00000057  00000-0  00000+0 0  9994
2 41550  57.1017 310.0066 0004292 228.9057 131.1283  1.70474978  7793
1 41550U 16030B   17239.43282921 -.00000057  00000-0  00000-0 0  9991
2 41550  57.0999 309.9429 0004346 229.8759 130.1525  1.70475059  7834
1 41550U 16030B   17239.43282921 -.00000057  00000-0  00000-0 0  9991
2 41550  57.0999 309.9429 0004346 229.8759 130.1525  1.70475059  7845
1 41550U 16030B   17242.36575256 -.00000045  00000-0  00000+0 0  9999
2 41550  57.0979 309.8633 0004429 231.1141 128.9129  1.70475167  7881
1 41550U 16030B   17246.47187798 -.00000020  00000-0  00000+0 0  9998
2 41550  57.0953 309.7518 0004504 232.3204 127.7207  1.70475025  7956
1 41550U 16030B   17246.47187798 -.00000020  00000-0  00000-0 0  9999
2 41550  57.0953 309.7518 0004504 232.3204 127.7207  1.70475025  7967
1 41550U 16030B   17249.99140462 -.00000010  00000-0  00000+0 0  9994
2 41550  57.0925 309.6563 0004573 233.6366 126.4109  1.70474869  8013
1 41550U 16030B   17254.09747817 -.00000022  00000-0  00000+0 0  9991
2 41550  57.0896 309.5445 0004659 234.7630 125.2680  1.70474784  8083
1 41550U 16030B   17255.27064247 -.00000025  00000-0  00000-0 0  9995
2 41550  57.0886 309.5125 0004679 235.0439 124.9826  1.70474776  8113
1 41550U 16030B   17257.61698398 -.00000027  00000-0  00000+0 0  9996
2 41550  57.0869 309.4487 0004718 235.9321 124.0928  1.70474778  8146
1 41550U 16030B   17258.20357466 -.00000027  00000-0  00000-0 0  9991
2 41550  57.0865 309.4327 0004724 236.0847 123.9414  1.70474697  8167
1 41550U 16030B   17262.30968608 -.00000034  00000-0  00000+0 0  9990
2 41550  57.0836 309.3209 0004766 237.1569 122.8742  1.70474781  8225
1 41550U 16030B   17262.89627072 -.00000036  00000-0  00000-0 0  9994
2 41550  57.0832 309.3050 0004779 237.4263 122.6036  1.70474786  8244
1 41550U 16030B   17264.06943673 -.00000040  00000-0  00000-0 0  9998
2 41550  57.0824 309.2731 0004797 237.7911 122.2353  1.70474832  8265
1 41550U 16030B   17266.41576792 -.00000042  00000-0  00000+0 0  9994
2 41550  57.0808 309.2093 0004829 238.8108 121.2063  1.70474848  8291
1 41550U 16030B   17269.93527596 -.00000028  00000-0  00000+0 0  9996
2 41550  57.0783 309.1136 0004856 240.0300 119.9813  1.70474887  8356
1 41550U 16030B   17273.45480464 -.00000009  00000-0  00000+0 0  9999
2 41550  57.0759 309.0178 0004901 241.1025 118.9165  1.70474869  8417
1 41550U 16030B   17273.45480464 -.00000009  00000-0  00000-0 0  9990
2 41550  57.0759 309.0178 0004901 241.1025 118.9165  1.70474869  8428
1 41550U 16030B   17276.38774637  .00000001  00000-0  00000+0 0  9993
2 41550  57.0739 308.9379 0004913 241.7940 118.2295  1.70474687  8461
1 41550U 16030B   17276.97432792  .00000002  00000-0  00000-0 0  9993
2 41550  57.0736 308.9219 0004920 242.1176 117.9050  1.70474741  8483
1 41550U 16030B   17281.08040360 -.00000010  00000-0  00000+0 0  9996
2 41550  57.0708 308.8099 0004947 243.1523 116.8502  1.70474532  8548
1 41550U 16030B   17282.84014946 -.00000016  00000-0  00000-0 0  9999
2 41550  57.0696 308.7619 0004959 243.7004 116.2935  1.70474524  8583
1 41550U 16030B   17284.01331889 -.00000018  00000-0  00000+0 0  9999
2 41550  57.0687 308.7300 0004959 243.9730 116.0185  1.70474533  8594
1 41550U 16030B   17286.35967142 -.00000020  00000-0  00000+0 0  9998
2 41550  57.0671 308.6661 0004954 244.8729 115.1199  1.70474462  8630
1 41550U 16030B   17288.11942833 -.00000023  00000-0  00000-0 0  9998
2 41550  57.0659 308.6182 0004951 245.4095 114.5848  1.70474663  8675
1 41550U 16030B   17288.70601961 -.00000025  00000-0  00000+0 0  9998
2 41550  57.0655 308.6021 0004950 245.6103 114.3837  1.70474542  8676
1 41550U 16030B   17288.70601961 -.00000025  00000-0  00000-0 0  9999
2 41550  57.0655 308.6021 0004950 245.6103 114.3837  1.70474542  8687
